NORAD_CAT_ID,OBJECT_NAME,OBJECT_TYPE,EPOCH,MEAN_MOTION,ECCENTRICITY,INCLINATION,RA_OF_ASC_NODE,ARG_OF_PERICENTER,MEAN_ANOMALY,BSTAR,MEAN_MOTION_DOT,MEAN_MOTION_DDOT,TLE_LINE0,TLE_LINE1,TLE_LINE2,SEMIMAJOR_AXIS,PERIOD,APOGEE,PERIGEE,DECAYED
52687.0,STARLINK-3981,PAYLOAD,2023-06-13 13:35:38,15.08864471,0.0001315,53.2181,313.8458,75.0873,285.0265,-0.00034866,-5.836e-05,0.0,0 STARLINK-3981,1 52687U 22053AH  23164.56641813 -.00005836  00000-0 -34866-3 0  9994,2 52687  53.2181 313.8458 0001315  75.0873 285.0265 15.08864471 59761,6917.806,95.436,540.58,538.761,0.0
52687.0,STARLINK-3981,PAYLOAD,2023-06-13 19:57:11,15.08842797,9.74e-05,53.2183,312.6564,77.5013,282.6089,5.3989e-05,5.72e-06,0.0,0 STARLINK-3981,1 52687U 22053AH  23164.83138371  .00000572  00000-0  53989-4 0  9992,2 52687  53.2183 312.6564 0000974  77.5013 282.6089 15.08842797 60172,6917.872,95.437,540.411,539.063,0.0
52687.0,STARLINK-3981,PAYLOAD,2023-06-14 02:18:44,15.08841197,0.0001068,53.2186,311.4659,82.5008,277.6106,3.2935e-05,2.36e-06,0.0,0 STARLINK-3981,1 52687U 22053AH  23165.09634508  .00000236  00000-0  32935-4 0  9999,2 52687  53.2186 311.4659 0001068  82.5008 277.6106 15.08841197 59841,6917.877,95.437,540.481,539.003,0.0
52687.0,STARLINK-3981,PAYLOAD,2023-06-14 10:15:40,15.08838329,9.55e-05,53.2184,309.9799,76.9405,283.1694,5.795e-05,6.35e-06,0.0,0 STARLINK-3981,1 52687U 22053AH  23165.42754685  .00000635  00000-0  57950-4 0  9992,2 52687  53.2184 309.9799 0000955  76.9405 283.1694 15.08838329 60263,6917.885,95.438,540.411,539.09,0.0
52687.0,STARLINK-3981,PAYLOAD,2023-06-14 19:47:58,15.08843886,9.42e-05,53.2179,308.1967,76.0411,284.0686,3.4821e-05,2.67e-06,0.0,0 STARLINK-3981,1 52687U 22053AH  23165.82498356  .00000267  00000-0  34821-4 0  9999,2 52687  53.2179 308.1967 0000942  76.0411 284.0686 15.08843886 60321,6917.869,95.437,540.385,539.082,0.0
52687.0,STARLINK-3981,PAYLOAD,2023-06-15 10:06:27,15.08828263,9.45e-05,53.2175,305.5205,87.8205,272.2895,-1.841e-05,-5.81e-06,0.0,0 STARLINK-3981,1 52687U 22053AH  23166.42115657 -.00000581  00000-0 -18410-4 0  9993,2 52687  53.2175 305.5205 0000945  87.8205 272.2895 15.08828263 60049,6917.916,95.438,540.435,539.128,0.0
52687.0,STARLINK-3981,PAYLOAD,2023-06-15 13:17:14,15.08831323,9.52e-05,53.2171,304.9266,90.6771,269.433,7.3624e-06,-1.71e-06,0.0,0 STARLINK-3981,1 52687U 22053AH  23166.55363438 -.00000171  00000-0  73624-5 0  9992,2 52687  53.2171 304.9266 0000952  90.6771 269.4330 15.08831323 60439,6917.907,95.438,540.43,539.113,0.0
52687.0,STARLINK-3981,PAYLOAD,2023-06-15 18:03:23,15.08836296,0.000105,53.2189,304.0354,72.7955,287.3152,3.3353e-05,2.43e-06,0.0,0 STARLINK-3981,1 52687U 22053AH  23166.75235177  .00000243  00000-0  33353-4 0  9995,2 52687  53.2189 304.0354 0001050  72.7955 287.3152 15.08836296 60099,6917.892,95.438,540.483,539.03,0.0
52687.0,STARLINK-3981,PAYLOAD,2023-06-16 09:57:13,15.08844858,0.0001047,53.218,301.0615,92.6532,267.458,0.00010138,1.326e-05,0.0,0 STARLINK-3981,1 52687U 22053AH  23167.41474504  .00001326  00000-0  10138-3 0  9996,2 52687  53.2180 301.0615 0001047  92.6532 267.4580 15.08844858 60193,6917.866,95.437,540.455,539.006,0.0
52687.0,STARLINK-3981,PAYLOAD,2023-06-16 14:43:22,15.08853874,8.14e-05,53.2183,300.1688,80.4933,279.6151,0.00015217,2.136e-05,0.0,0 STARLINK-3981,1 52687U 22053AH  23167.61345814  .00002136  00000-0  15217-3 0  9992,2 52687  53.2183 300.1688 0000814  80.4933 279.6151 15.08853874 60228,6917.838,95.437,540.266,539.14,0.0
52687.0,STARLINK-3981,PAYLOAD,2023-06-16 17:54:08,15.08858199,8.19e-05,53.2183,299.574,77.8313,282.2771,0.0001929,2.785e-05,0.0,0 STARLINK-3981,1 52687U 22053AH  23167.74593397  .00002785  00000-0  19290-3 0  9992,2 52687  53.2183 299.5740 0000819  77.8313 282.2771 15.08858199 60611,6917.825,95.436,540.256,539.123,0.0
52687.0,STARLINK-3981,PAYLOAD,2023-06-17 01:51:05,15.08834375,9.16e-05,53.2185,298.0878,92.386,267.7237,1.6634e-06,-2.61e-06,0.0,0 STARLINK-3981,1 52687U 22053AH  23168.07714867 -.00000261  00000-0  16634-5 0  9995,2 52687  53.2185 298.0878 0000916  92.3860 267.7237 15.08834375 60295,6917.898,95.438,540.396,539.129,0.0
52687.0,STARLINK-3981,PAYLOAD,2023-06-17 09:48:02,15.08819708,0.0001032,53.2175,296.6007,93.6214,266.4896,-0.00012924,-2.343e-05,0.0,0 STARLINK-3981,1 52687U 22053AH  23168.40835985 -.00002343  00000-0 -12924-3 0  9997,2 52687  53.2175 296.6007 0001032  93.6214 266.4896 15.08819708 60345,6917.942,95.439,540.521,539.093,0.0
52687.0,STARLINK-3981,PAYLOAD,2023-06-17 14:34:11,15.08824756,0.0001039,53.2173,295.708,92.1043,268.0069,-0.00022049,-3.794e-05,0.0,0 STARLINK-3981,1 52687U 22053AH  23168.60707546 -.00003794  00000-0 -22049-3 0  9990,2 52687  53.2173 295.7080 0001039  92.1043 268.0069 15.08824756 60748,6917.927,95.439,540.511,539.073,0.0
52687.0,STARLINK-3981,PAYLOAD,2023-06-18 01:41:53,15.08828811,9.89e-05,53.2173,293.627,95.9611,264.1494,0.00070816,0.00010997,0.0,0 STARLINK-3981,1 52687U 22053AH  23169.07075965  .00010997  00000-0  70816-3 0  9991,2 52687  53.2173 293.6270 0000989  95.9611 264.1494 15.08828811 60443,6917.915,95.438,540.464,539.095,0.0
52687.0,STARLINK-3981,PAYLOAD,2023-06-18 14:24:58,15.0885421,8.65e-05,53.2168,291.2479,95.3848,264.7243,0.0012512,0.00019689,0.0,0 STARLINK-3981,1 52687U 22053AH  23169.60067776  .00019689  00000-0  12512-2 0  9996,2 52687  53.2168 291.2479 0000865  95.3848 264.7243 15.08854210 60520,6917.837,95.437,540.3,539.104,0.0
52687.0,STARLINK-3981,PAYLOAD,2023-06-19 01:32:40,15.08857869,7.57e-05,53.2162,289.1665,90.6038,269.5041,0.00083867,0.00013091,0.0,0 STARLINK-3981,1 52687U 22053AH  23170.06435432  .00013091  00000-0  83867-3 0  9999,2 52687  53.2162 289.1665 0000757  90.6038 269.5041 15.08857869 60595,6917.826,95.436,540.214,539.167,0.0
52687.0,STARLINK-3981,PAYLOAD,2023-06-19 14:15:45,15.08856113,0.0001147,53.2175,286.7864,109.1599,250.9517,0.00048173,7.39e-05,0.0,0 STARLINK-3981,1 52687U 22053AH  23170.59427133  .00007390  00000-0  48173-3 0  9992,2 52687  53.2175 286.7864 0001147 109.1599 250.9517 15.08856113 61049,6917.831,95.437,540.49,538.903,0.0
52687.0,STARLINK-3981,PAYLOAD,2023-06-19 15:51:08,15.08854912,8.44e-05,53.2167,286.4903,92.7036,267.4052,0.00037352,5.664e-05,0.0,0 STARLINK-3981,1 52687U 22053AH  23170.66051114  .00005664  00000-0  37352-3 0  9991,2 52687  53.2167 286.4903 0000844  92.7036 267.4052 15.08854912 60688,6917.835,95.437,540.284,539.116,0.0
52687.0,STARLINK-3981,PAYLOAD,2023-06-20 09:20:22,15.08846076,0.0001316,53.2169,283.2163,115.7289,244.3839,7.7415e-05,9.45e-06,0.0,0 STARLINK-3981,1 52687U 22053AH  23171.38915154  .00000945  00000-0  77415-4 0  9996,2 52687  53.2169 283.2163 0001316 115.7289 244.3839 15.08846076 60795,6917.862,95.437,540.637,538.816,0.0
52687.0,STARLINK-3981,PAYLOAD,2023-06-20 17:17:18,15.08845634,0.0001301,53.217,281.7298,113.4951,246.6178,0.00010708,1.417e-05,0.0,0 STARLINK-3981,1 52687U 22053AH  23171.72035126  .00001417  00000-0  10708-3 0  9992,2 52687  53.2170 281.7298 0001301 113.4951 246.6178 15.08845634 61212,6917.863,95.437,540.628,538.828,0.0
52687.0,STARLINK-3981,PAYLOAD,2023-06-21 12:21:56,15.08840757,0.0001034,53.2173,278.1659,74.2031,285.9075,6.4519e-05,7.39e-06,0.0,0 STARLINK-3981,1 52687U 22053AH  23172.51523424  .00000739  00000-0  64519-4 0  9999,2 52687  53.2173 278.1659 0001034  74.2031 285.9075 15.08840757 60966,6917.878,95.438,540.458,539.028,0.0
52687.0,STARLINK-3981,PAYLOAD,2023-06-21 13:57:19,15.08846226,9.14e-05,53.2173,277.8682,85.3784,274.7312,6.9007e-05,8.11e-06,0.0,0 STARLINK-3981,1 52687U 22053AH  23172.58147122  .00000811  00000-0  69007-4 0  9991,2 52687  53.2173 277.8682 0000914  85.3784 274.7312 15.08846226 61342,6917.861,95.437,540.359,539.094,0.0
52687.0,STARLINK-3981,PAYLOAD,2023-06-22 13:48:06,15.0884486,7.7e-05,53.2164,273.4073,79.0641,281.0438,0.00010674,1.412e-05,0.0,0 STARLINK-3981,1 52687U 22053AH  23173.57507184  .00001412  00000-0  10674-3 0  9992,2 52687  53.2164 273.4073 0000770  79.0641 281.0438 15.08844860 61128,6917.866,95.437,540.263,539.198,0.0
52687.0,STARLINK-3981,PAYLOAD,2023-06-23 10:28:07,15.08840476,7.69e-05,53.2154,269.541,87.0329,273.0751,8.1054e-05,1.003e-05,0.0,0 STARLINK-3981,1 52687U 22053AH  23174.43619393  .00001003  00000-0  81054-4 0  9991,2 52687  53.2154 269.5410 0000769  87.0329 273.0751 15.08840476 61250,6917.879,95.438,540.276,539.212,0.0
52687.0,STARLINK-3981,PAYLOAD,2023-06-23 16:49:39,15.08851628,9.14e-05,53.2165,268.3527,104.144,255.9654,0.00022193,3.247e-05,0.0,0 STARLINK-3981,1 52687U 22053AH  23174.70114740  .00003247  00000-0  22193-3 0  9997,2 52687  53.2165 268.3527 0000914 104.1440 255.9654 15.08851628 61291,6917.845,95.437,540.342,539.078,0.0
52687.0,STARLINK-3981,PAYLOAD,2023-06-23 23:11:12,15.08833017,0.000111,53.2165,267.1633,83.109,277.0029,-5.1637e-05,-1.109e-05,0.0,0 STARLINK-3981,1 52687U 22053AH  23174.96611801 -.00001109  00000-0 -51637-4 0  9998,2 52687  53.2165 267.1633 0001110  83.1090 277.0029 15.08833017 61330,6917.902,95.438,540.535,538.999,0.0
52687.0,STARLINK-3981,PAYLOAD,2023-06-24 15:05:03,15.08841991,9.83e-05,53.2165,264.1892,80.5881,279.5222,9.2679e-05,1.188e-05,0.0,0 STARLINK-3981,1 52687U 22053AH  23175.62851567  .00001188  00000-0  92679-4 0  9993,2 52687  53.2165 264.1892 0000983  80.5881 279.5222 15.08841991 61433,6917.874,95.437,540.419,539.059,0.0
52687.0,STARLINK-3981,PAYLOAD,2023-06-24 23:01:59,15.08831123,2.62e-05,53.2154,262.7048,162.2594,197.8407,-0.00010724,-1.993e-05,0.0,0 STARLINK-3981,1 52687U 22053AH  23175.95971609 -.00001993  00000-0 -10724-3 0  9995,2 52687  53.2154 262.7048 0000262 162.2594 197.8407 15.08831123 61485,6917.908,95.438,539.954,539.591,0.0
52687.0,STARLINK-3981,PAYLOAD,2023-06-25 13:20:27,15.08850758,9.21e-05,53.2149,260.0255,95.5205,264.5892,0.00072854,0.00011329,0.0,0 STARLINK-3981,1 52687U 22053AH  23176.55587684  .00011329  00000-0  72854-3 0  9992,2 52687  53.2149 260.0255 0000921  95.5205 264.5892 15.08850758 61574,6917.848,95.437,540.35,539.075,0.0
